name,description,0,1,2,3,4,5,lng,lat,region,placeid,region2,region2_en,pic0,pic1,pic2,town
永鎮海濱公園,如果想在炎夏時節玩沙踏浪，戲水消暑，或是悠閒舒適地欣賞太平洋與龜山島，來到永鎮海濱公園可以一次滿足！從永鎮廟旁的坡道上行約三、四分鐘即可抵達公園，遼闊的海景風光和綿延沙灘是這裡吸引眾多大小朋友的主要特色，並設有棧道及觀景涼亭可以遠眺海上龜山島，也是夏至觀賞「龜山朝日」的絕佳景點，還有難得的龜首含日景色，許多攝影迷皆前來朝聖拍攝！園區的海岸型植物有防風定沙的功用，夏日時節往往蔓生成一片綠色沙丘。而因位於蘭陽溪與竹安溪口之間，得天獨厚成為鳥類棲息的處所，因此來到這裡，不僅是戲水觀浪，眺望龜山美景，還有繁盛的植物生態和鳥類聚落，讓人可以親身感受大自然的脈動。而除了濱海遊憩和自然生態，這裡也蘊含著在地人文風情，值得一探究竟。一旁的永鎮廟歷史悠久，如今仍香火鼎盛，廟中主祀開漳聖王，每年農曆2月15日開漳聖王祭日，有過火儀式等民俗活動，吸引眾多香客前來參拜，盛況非凡。另外，因為永鎮屬沙岸地形，早期的漁民會採取「牽罟」的古老漁撈方式，用漁舟將漁網載至海上，眾人在沙灘合力將漁網拉上岸，至今偶爾還可看見這種漁作，近年更有牽罟體驗活動，讓遊客彷彿回到純樸的漁村生活。,0,0,0,0,1,0,121.81562,24.7753,宜蘭縣,616,宜蘭,Yilan,,,,壯圍鄉
大坑觀景台,看海放空人生 無敵海景盡收眼底大坑觀景台原本是管制海防的軍事哨所，隨時空移轉，海防腳色逐漸淡化而荒廢，經管理處整頓招商，如今蛻變成坐擁全視野海景的景觀咖啡館，也是許多旅遊達人的私房看海秘境。來到這裡，放眼望去即是一棟白色建築加上絕美海景，怎麼拍怎麼好看，而白天和晚上更有不同風味，常為人推薦是宜蘭必去景點之一！咖啡館與海為鄰，和龜山島相望，遼闊的太平洋湛藍海面成了最美麗的窗景，館內溫馨明亮，以純淨白色和藍色為主色調，頗有異國浪漫風情，來杯現沖咖啡和道地的農家餐，享受海天一色的美景，很適合放空淨化腦袋！館內還貼心提供插座電源及無線網路，也歡迎帶著家中毛小孩一起玩樂，看海一整天，放鬆身心享受悠閒時光！,0,0,0,0,1,0,121.83208,24.85644,宜蘭縣,617,宜蘭,Yilan,,,,頭城鎮
蜜月灣,大溪以眉月形狀的迤邐海灣、海水湛藍清澈聞名，又常見倩影雙雙，在此流連忘返，而有「蜜月灣」之美稱，或漫步在細柔的沙灘上，或撿拾鵝卵石打水漂，或找尋滿地奔馳的魔鬼蟹，浪漫氣息洋溢。 蜜月灣南北兩側分佈著礁岩，僅中間少部分為細軟沙灘，除了風景秀麗，可供戲水賞景外，由於海灣遼闊，且離海岸數百公尺的海底地形起伏很大，海浪常激起2、3公尺高，波濤洶湧，更是水上活動及衝浪聖地，每年吸引不少極限挑戰者來此參加全國性衝浪比賽。 自明山寺旁登山口步行約30分鐘可抵達附近一處高441公尺的鶯石尖，登高後可眺望遠方龜山島、俯瞰壯麗海灣，視野遼闊且景緻優美，是賞景的另一種選擇。,0,0,0,0,1,0,121.88469,24.93556,宜蘭縣,630,宜蘭,Yilan,,,,頭城鎮
外澳服務區,炎炎夏日，想來趟消暑的沙灘戲水行，不妨來到外澳服務區逛逛，這棟看起來像飛行傘，也像一艘大船的鮮黃色建築是由名建築師姚仁喜設計，極富現代感的外觀具有多重意象，歡迎發揮你的想像力，親身體會這棟建築的特別。 黃色外牆襯著藍天大海，正對著龜山島，獨擁一片濕地沙灘，還有蔚藍的海堤步道，每當晨昏陽光落在海面，遊客嬉戲的剪影映入眼簾，與龜山朝日、烏龜戴帽的美景相映成趣。除了有絕美風景外，外澳沙灘也是衝浪客聖地，沙灘旁有店家提供衝浪教學，新手也可享受在浪花奔馳的快感，還有香蕉船等刺激的水上活動；附近山頂上則有飛行傘基地，坐上飛行傘升上天空後可俯視整個外澳的海岸線，美麗又壯觀，這裡豐富的陸海空三域活動吸引許多遊客來冒險挑戰。 服務區內貼心設有免費的沖腳區以及付費的淋浴區，室內9號咖啡館更提供咖啡、餐飲小點和借問站服務，大片落地窗可遠望太平洋濱海美景及龜嶼佳景，號稱是離海邊最近的咖啡館，旅人們在戲水嬉遊後可以到此飽食賞景，休憩放鬆身心。,0,0,0,0,1,0,121.8415,24.87804,宜蘭縣,631,宜蘭,Yilan,https://www.necoast-nsa.gov.tw/FileArtPic.ashx?id=770&w=1280&h=960,,,頭城鎮
烏石港,喜愛衝浪挑戰自我，享受海上奔馳快感，或想要大啖海鮮，一嚐現撈的新鮮滋味？來一趟烏石港吧！ 「烏石」一稱源自於港內的黑色巨大礁石，這個位於頭城小鎮的漁港除了傳統漁業功能外，也深具歷史文化意義，它曾是蘭陽第一大港，頭城的重要門戶，許多商賈及各類民生物資皆由此出入，「石港春帆」即是形容當時商船雲集，以及來往船隻絡繹不絕的盛況。後來在1878年的一次洪水氾濫，大量泥沙的淤積，加上1883年一艘美國大船在此觸礁擱淺，烏石港從此失去功能，逐漸沒落，也影響了當時頭城的繁榮興盛。 而1991年重新建港後，烏石港已搖身一變成為如今許多人非常喜愛的觀光休閒漁港，舊有的烏石港遺址則規劃成保育溼地，港內另設有觀光魚市「烏石漁港直銷中心」及遊艇港，一邊品嚐美味海鮮，一邊觀賞港口船舶美景，海味十足！ 烏石港除了擄獲不少饕客的心，更是衝浪客的天堂！平坦寬廣的沙灘和廣闊的衝浪區域規劃，每當假日總見海上高手雲集，追逐浪花穿梭其中，而沙灘上的簡易排球場也不乏大小朋友嬉鬧歡樂，沙質細軟，玩起沙灘排球來想當安全舒暢！ 建議此行可同遊周邊的遊客中心，以及知名景點-蘭陽博物館，在這趟烏石之旅中親近海洋、品嘗美食，同時又能認識蘭陽人文之美！,0,0,0,0,1,0,121.83559,24.87119,宜蘭縣,632,宜蘭,Yilan,,,,頭城鎮
竹安溪口,竹安溪口溼地面積遼闊，棲地環境包括了水田、魚塭及淡水沼澤，也因此這裡的養殖漁業盛行，主要以九孔、鰻魚及草蝦為主。而寬闊多樣又幽靜的濕地環境，加上潮汐帶來的大量魚蝦，讓這裡也成為鳥類隱密的棲息地，在秋冬時分候鳥南遷之時，各式各類、成千上萬的水鳥在此過境落腳，或渡冬作客，你可以看到一隻隻的水鳥漫步覓食的優雅模樣，以及水面倒映層層山巒的美景，是賞鳥觀景的私房景點，只是近年生態系被改變，鳥況不像從前繁盛，也不禁令人思考愛惜大自然的重要。 而竹安溪口的海濱沙地除了可賞鳥賞景外，還可見到宜蘭傳統的民俗活動－牽罟。所謂牽罟是當魚汛時，漁民們用竹筏牽著網罟，繞著海岸將魚群收到網內，然後由岸邊的人合力拉繩將漁貨拉上岸，而參加牽罟的人都能分到漁貨。 另外這裡也是欣賞日出的好地點，清晨時分太陽升起，暖黃陽光映射河面，許多攝影迷特地來此捕捉這樣的寧靜之美。,0,0,0,0,1,0,121.82604,24.84136,宜蘭縣,633,宜蘭,Yilan,,,,頭城鎮
頭城農場,如果對平日繁忙的都市生活感到疲憊，推薦來頭城農場接受大自然熱情的款待！距離北部都會區不過2小時的車程，就能享受純樸的鄉村時光，回憶充滿田園清新的兒時野趣。 頭城農場倚山面海、占地百頃，平溪、桃子林溪以及當地人俗稱的「大溪」等三條溪水潺潺流過農場山間，加上複雜的林相、遍布山頭的桂竹和廣植山坡的果園樹林，造就這裡得天獨厚的自然景觀及豐富動植物生態，更有飼養火雞、兔子和雞等的農村動物區和水稻體驗區，是一座戶外自然教室，更是天然的遊樂場，大小朋友可在此體驗一日農夫，享受親手採果、剷筍、摸蜆、捉蝦和戲水樂趣，還有乘竹筏、觀日出和賞星斗的休閒活動，彷彿置身農村生活般的簡樸快樂，遠離塵囂煩惱。 農場也規劃許多套裝行程，包含DIY手作農特產品和葉拓T恤、跟著導覽阿伯尋訪知性的農村人文生態、品嘗在地美食饗宴飽餐一頓，相當適合帶著小朋友來這體驗農村生活、親近大自然，也建議可順訪藏酒酒莊，在美酒之下沉醉於靜謐的山林秘境。,0,1,0,0,0,0,121.84946,24.90714,宜蘭縣,634,宜蘭,Yilan,,,,頭城鎮
宜蘭濱海自行車道,若想欣賞橫跨五結、壯圍和頭城小鎮的濱海風光，不妨踏上單車，沿著自行車道慢騎河海之間，用不一樣的方式體驗蘭陽之美。 闊葉樹林和林投樹間夾道而成的壯圍濱海自行車道，全長15公里，放眼望去皆是蓊鬱茂盛的林木，十分幽靜，車道兩旁都有許多岔路，右邊岔路出去是壯圍鄉沿岸的海邊，左邊岔路則是通往壯圍鄉聚落，偶有碉堡出現，增添途中不少樂趣。沿途有遠方的龜山島一路伴隨，自然景觀絕美開闊，令人身心舒暢，整條自行車道會遇上兩處景觀涼亭，供單車騎士休憩及觀賞保安林一帶的海岸風光，眺望遼闊沙灘及湛藍大海，還有不絕於耳的浪濤聲與陣陣海風，好似一幅靜謐恬適的海濱風情畫。 周遭景點還有可以玩沙戲水、拍攝龜山朝日的永鎮海濱公園，以及位於蘭陽溪口的東港榕樹公園，在榕樹遮蔭及海風吹拂之下，舒適宜人。找個天氣晴朗的好日子規劃一趟鐵馬輕旅行，來和龜山島、太平洋約會，感受這條自行車道沿途的好風景！ 【小提醒】 因單車道或是林間小路兩旁皆是茂盛林木，會有較多小飛蚊，建議可穿著長袖長褲或上路前擦個防蚊液喔！沿途皆有公廁供遊客使用，位置可見濱海自行車道地圖。,0,0,0,0,0,0,121.82818,24.71743,宜蘭縣,635,宜蘭,Yilan,,,,壯圍鄉
東港榕樹公園,在壯圍小鎮的東港村出海口有座可以乘涼放空的榕樹公園，你可以在老樹間懸掛的吊床上休憩放鬆，或在枝枒蔓生的林蔭大道踩踏光影，悠閒漫步，享受靜謐時光。東港榕樹公園位於濱海自行車道的南端出口，是自行車道路線上的休憩景點之一，因茂盛的樹枝交織成濃蔭蔽日的自然奇景而得名，也因此成為單車騎士及遊客夏日乘涼賞景的中繼點。這裡最特別的「漁網吊床」是在地老漁民及社區居民以漁網編織而成，來到公園一定要試試在吊床上放空的快活，才算是不虛此行。群樹下的大眾爺廟也是當地居民休憩談天的地方，走出榕樹公園，可見昔日的簡易碼頭，現今仍有漁船停靠，雖然沒有過去的捕魚盛況，但仍保留著濃厚的漁村味道及純樸風情。海濱遊憩區、榕樹公園以及附近的蘭陽溪口賞鳥區皆是永鎮值得推薦的景點，可沿著濱海公路而行，以單車漫遊穿梭最為樂活逍遙，還可欣賞公園所在的傳統廍後社區，仍保有早期臺灣鄉下的老房子面貌，懷舊風味十足。,0,0,0,0,1,0,121.82699,24.7172,宜蘭縣,636,宜蘭,Yilan,,,,壯圍鄉
五十二甲賞鳥區,為何稱為五十二甲？相傳是因這裡昔日開墾的土地面積有52甲而得名！五十二甲溼地早期原為冬山河舊河道，地勢低窪因而常年積水，形成大片草澤，擁有相當良好的水田環境，也因此自成特殊且豐富的濕地生態，是鳥類的棲息天堂，每年冬天吸引大批候鳥前來過冬覓食。賞鳥時機為每年十月到十二月及春天四月，除了冬候鳥外，常可見綠頭鴨、琵嘴鴨、蒼鷺等鳥類在此展翅、落地的身影。五十二甲賞鳥區歷年共紀錄了百種以上鳥類，而特殊的鳥種也不少，如灰雁、白額雁、羅文鴨、磯雁、角鵬鵬、黑頸鵬鵬等，是賞鳥迷們不可錯過的聖地之一！ 除了賞鳥，近年這裡也成了夏季賞花秘境，因過去常淹水而造成土堤崩壞，農民便栽種了數百株穗花棋盤腳護堤，當花季來臨，夜間盛開的穗花棋盤腳有如樹上煙火一般，繽紛奪目，且越夜越美麗，這般夏夜奇景是許多旅人的最愛。五十二甲溼地之美，四季皆宜，一年裡隨時都可安排一趟蘭陽單車輕旅行，享受田園濕地風光，夏季可一睹「一夜美人」－穗花棋盤腳帶來的煙花秀，秋冬之際則可騎著單車沿岸觀賞秋季稻田風光和自然生態之美，尤其更不要錯過冬候鳥的飛行秀和覓食秀，探訪這些可愛又優雅的空中精靈。,0,1,0,0,0,0,121.81637,24.66537,宜蘭縣,640,宜蘭,Yilan,,,,五結鄉
利澤沙丘海岸,蘭陽傳說的「龜蛇把海口」，龜是指龜山島，蛇即指綿延的沙丘，利澤是其中的一段。蘭陽平原的海岸線因為受到海蝕的影響，呈向內微凹弓形海岸。只有蘭陽溪源自雪山山脈與中央山脈間切割下來，冬山河挾帶大量泥沙沖刷入太平洋，沖刷力強，搬運物質極多，再加上每年都要到訪半年以上的東北季風，造成海岸線向東突出成尖嘴狀三角洲，其堆積作用十分旺盛且持續在進行，而使利澤海邊形成了高達數十公尺的海岸沙丘的地形；由於海岸沙丘橫亙，河流入海不易，因而在沙丘脊間的凹低處，造成排水不易、積水成澤，形成背後濕地。沙丘上，羅列著芒草、林投、相思樹等，平滑得有如磨蠟後的海灘，與沙丘上的一帶綠色，構成一幅絕佳的景色。,0,0,0,0,1,0,121.83436,24.66749,宜蘭縣,641,宜蘭,Yilan,,,,五結鄉
後山公路文物館,"民國100年成立，係公路總局第四區養護工程處為記錄保存後山公路闢建歷程而設，以道路、橋梁、隧道為主題，分別以照片、實物、模型呈現，見證自1949年來，後山公路築路修橋的艱辛歲月，緬懷前輩先賢克苦耐勞的精神，同時展現公路文化的內涵。交通部公路總局第四區養護工程處成立於民國38年10月1日,至今，歷經了一甲子歲月的洗煉，在顛簸崎嶇的道路上，締造了宜蘭、花蓮兩縣公路奇蹟，昔日歲月的痕跡充滿了酸甜苦辣。回首來時路，公路前輩們以「智慧」與「血汗」辛勞付出，繼往開來的歷史責任與神聖使命，引領四工處不停的蛻變與成長、睿智及堅毅的精神，是我們學習的典範。為了記錄保存後山公路的成長歷程，緬懷前輩先賢以手工、簡陋機具開山闢路，完成任務的不朽功業，對公路建設卓越成就的珍貴資產，得以發光、發熱，同時展現公路文化的內涵，發揚「公路人」克苦耐勞的精神，以傳承經驗，作為新進同仁，學習的典範及核心標竿，特將相關老舊文物予以彙集，籌設「後山公路文物館」整理典藏。",0,0,1,0,0,1,121.83472,24.59674,宜蘭縣,872,宜蘭,Yilan,,,,蘇澳鎮
橘之鄉蜜餞形象館,「橘之鄉蜜餞形象館」為國內第一家蜜餞觀光工廠，裡面設有有咖啡館，提供遊客休憩的角落，一杯咖啡搭配手工餅乾，拋開了煩惱，享受放鬆自我的片刻！另外還有金棗蜜餞DIY體驗活動，透過專人解說指導，讓遊客們可以了解蜜餞的製作過程，此活動更適合家長陪同小朋友學習，增進親子關係。蜜餞工廠，從選果、醃漬、針刺、漂水、殺菁、真空糖漬、熱風乾燥、到衛生包裝，透明化的製作過程都完整的呈現在眼前，就是要讓遊客知道橘之鄉的產品是天然又健康的！童話故事的玻璃屋、白色小木屋，藏著愛麗絲都想知道的祕密。歡迎來橘之鄉蜜餞觀光工廠喝咖啡、品嚐手作蜜餞、金棗蜜餞DIY，享受金棗的酸甜滋味。＜參考資料來源：橘之鄉蜜餞形象館網站＞多樣金棗商品，歡迎選購!喝咖啡搭配手工餅乾，享受下午茶美好時光!夢幻的白色玻璃屋,0,1,0,1,0,0,121.73693,24.77997,宜蘭縣,876,宜蘭,Yilan,,,,宜蘭市
亞典蛋糕密碼館,亞典蛋糕密碼館，位於宜蘭市梅洲二路上，一進入館內，蛋糕香味撲鼻而來，歐式空間的主題裝飾，非常優雅！除了設有蜂蜜蛋糕文化展示區、文化導覽簡報區、現場蛋糕烘焙展示區，現場還有DIY體驗區，遊客可以經由導覽及親手體驗，了解蜂蜜蛋糕豐富的源由與生產過程，來到亞典蛋糕密碼館，不僅可以試吃各式各樣的蛋糕，還可享受這裡為您帶來「五心級」的服務，也將讓民眾在味覺和視覺體會到前所未有的感動。「團圓年輪、日式長崎峰蜜蛋糕、紅豆蛋糕」為亞典三寶，造型最特別的就是「團圓年輪」，長長一圈又一圈的，是史上最耗時、最難做的蛋糕，在特殊的烤爐中用三百多度高溫懸空式烘焙，濃郁的香氣與豐富層次的口感，一定會讓你一口接著一口！將年輪蛋糕帶回給親朋好友分享是再適合不過的了！＜參考資料來源：亞典蛋糕密碼館網站＞現場可以直接看到年輪蛋糕的製作過程喔!亞典最有名的年輪蛋糕館內針對亞典蛋糕製作過程做了詳細介紹!,0,0,0,1,0,0,121.7316,24.78101,宜蘭縣,877,宜蘭,Yilan,,,,宜蘭市
大塭觀光休閒養殖場,大塭觀光休閒養殖場是由政府與民間所積極推動的國內首座以漁村特色及文化資產，開發為可供民眾遊憩、玩樂、品嚐海鮮及體驗漁業的觀光景點。主要展出傳統漁具的文物及史蹟的展館，有各式造型古怪的漁法和漁具。館內更舉辦魚拓、編織等現場教學之體驗活動，藉以了解漁業的生活文化與民間藝術等。養殖區規劃有親水活動廣場、鴨母船碼頭、親子步道、水上步道、歐風花園、咖啡座等設施，可以讓遊客悠遊自在走訪參觀。場區設有「蘭陽蟳屋餐廳」，提供遊客享受味美新鮮海產料理用餐服務，以及VIP式的小木屋餐廳包廂，內有獨立式卡拉OK伴唱機，讓遊客們可以擁有獨立的空間用餐，隔離吵雜，享受與家人獨處的好時光，或是三五好友歡唱、聚會的好所在。大塭觀光休閒養殖場是供民眾遊憩、玩樂、品嚐海鮮及體驗漁業的觀光景點。遊客可在此悠遊地散步！大塭觀光休閒養殖場一景。大塭觀光休閒養殖場規劃有親水活動廣場。,0,0,0,0,1,0,121.80449,24.81789,宜蘭縣,880,宜蘭,Yilan,,,,礁溪鄉
金車礁溪蘭花園,蘭花在中國文化中，與梅、竹、菊合稱四君子，是台灣人最喜歡的花類之一。金車蘭花園成立於 1988 年，主要從事花卉組織培養、細胞培養、基因轉殖、品種選育、無病毒健康種苗生產工作，因宜蘭氣候極適合蝴蝶蘭生長，加上金車斥資興建電腦調控等設備，故生產之蝴蝶蘭品質優良，且建立良好口碑。園區內的寬敞空間規劃有不同主題區，以雨林探索為出發，在花與雨林生物陪你參觀遊玩時，能認識自然生態的重要性，並共同愛護我們的地球。來到這裡有機會能看見許多珍奇的花卉植物，還有能與可愛動物近距離互動的體驗空間。現場提供簡餐、咖啡甜點及汆燙白蝦服務及金車系列商品，供消費者選擇。誠摯的歡迎您的到來，一同享受礁溪的田園風光。 蘭花為台灣人最喜歡的花類之一除了蘭花，還有各式各樣的仙人掌！民眾能參加親親水豚活動，專人解說陪同，解鎖有趣的水豚資訊。民眾參觀雨林探索區猶如進入一場雨林的洗禮。,0,1,0,0,0,0,121.78427,24.82078,宜蘭縣,881,宜蘭,Yilan,,,,礁溪鄉
宜蘭甲魚養殖場,人們喜愛食用「甲魚」，別名「鱉」、「水魚」為主，因為它是一種高蛋白、低脂肪的滋補品。宜蘭養殖場專門養殖甲魚，由於甲魚須生活在高溫度的環境，而礁溪溫泉剛好能提供終年攝氏3O度左右的適當溫度環境，所以養殖場主人想到利用溫泉來養「鰲」，其鱉肉新鮮可口、肉質Q彈，是當地餐廳業者最信賴的鱉肉來源之一，30年以上的專業養殖經營，控制好鱉的成長條件以及有效的管理鱉池水質，所供應的都是健康無汙染、無水產用藥的活鱉，鱉肉營養、熱量低、富含膠質，適合民眾安心料理食用！這裡的甲魚都是用礁溪溫泉水來養殖「甲魚」，別名「鱉」、「水魚」。甲魚在健康無汙染的環境下生長。,0,0,0,0,1,0,121.77648,24.82128,宜蘭縣,882,宜蘭,Yilan,,,,礁溪鄉
金車生技水產養殖研發中心,金車關係事業旗下金車生物科技公司設立水產事業部，引進太平洋純淨海水養殖白蝦。秉持食品、安全、衛生的精神投入最先進圓桶養殖設備，全程不添加任何抗生素及化學藥劑養殖，並榮獲優良養殖場認證、CAS認證及產銷履歷認證，讓消費者買得放心、吃得安心。伴隨宜蘭旅遊風潮成立水產門市部，園區設有室內外白蝦養殖區、海洋生態展示區及全台唯一鯊魚餵食活動，站在空中玻璃台上觀賞鯊魟群游，體驗前所未有的新奇感受。現場提供金車鮮蝦汆燙服務、各式精緻餐點及咖啡下午茶點心。誠摯邀請大家一同來認識豐富的海洋生態，愛惜我們珍貴的海洋資源，在風光明媚的礁溪享受一趟舒適悠閒的海洋生態之旅。寬闊的舒適空間供遊客休息，喝咖啡！現場有許多的海洋知識牆，讓民眾更了解海洋保育的重要。全台唯一鯊魚魟魚近距離餵食體驗活動。,0,0,0,0,1,0,121.79335,24.81757,宜蘭縣,883,宜蘭,Yilan,,,,礁溪鄉
呂美麗精雕藝術館,呂美麗女士自1989年投入雕刻創作，以鄉土、生活、佛等三大系列的主題，運用黃楊木、黃金、琉璃等多樣化素，以生活化的雕刻手法雕刻出許多憾動人心的作品，也曾在國內得到許多獎項，藝術創作受到各界的肯定。呂美麗希望讓創作的生命精神永遠存在，使觀賞者可從欣賞作品的過程中體驗生命喜悅與感動！呂美麗女士設立了蘭陽地區第一個以精雕為主題的藝術館，遊客可以欣賞呂美麗女士以純熟的技術及刀工雕刻出來的作品，實在栩栩如生、微妙維肖，絕對能讓參觀的民眾感到驚呼！另外只要是進入館內參觀的民眾都可以享用館方招待的咖啡或茶，二樓也附設茶莊空間，提供民眾在此休息享用茶點。精雕館館內精雕館館內展區展覽作品,0,0,0,1,0,0,121.78381,24.81551,宜蘭縣,884,宜蘭,Yilan,,,,礁溪鄉
二龍河,相傳，早年平埔族噶瑪蘭人依二龍河而居，當時每戶人家後院皆與河道直通，但是卻常有孩童落水溺斃，噶瑪蘭人便以競渡方式，驅逐水中精怪。後來雖漢人入墾混居，卻仍然延續這個習俗，到了端午節，由年高德劭者帶領祭拜點睛，接著祭拜河神，然後才是精采的划船比賽。依傳統，比賽時辰在午後，參賽隊伍也只有淇武蘭與洲仔尾二隊，庄民可輪流上陣，但不准外人及女子參賽。比賽方式極特殊，只敲鑼、不打鼓，以站立姿勢划船，輸贏全憑觀眾和隊員自行認定，二庄庄民卻往往自認己方才是勝利者，因此往往是來來回回賽了十趟、八趟，仍難罷休。這麼激烈的競賽，爭的是被庄民視為最神聖、吉利的「平安旗」，以及那股鄉民們「輸人不輸陣」的運動豪情。端午節，也到二龍河邊來歡喜助陣吧！二龍競渡：二龍競渡現今已成為二龍村的風範，深深凝聚著村民的心。 沒有發令員、沒有起點、也沒有打鼓聲的「二龍競渡」，是一場沒有裁判的比賽。二龍競渡舉辦在每年的端午節，自嘉慶年間沿襲至今，歷史悠久也是最具鄉土氣息的龍舟比賽，並獲觀光局選定為全國十二大民俗活動之一，是礁溪鄉文化上的寶貴資產。,0,0,1,0,1,0,121.79052,24.81088,宜蘭縣,885,宜蘭,Yilan,,,,礁溪鄉
二五連水門公園,位於宜蘭縣礁溪鄉猴洞溪與頭城砂仔港排水的會流處，為一大型防潮排水門，並設有一管理站調節水量，週邊水利地長約72公尺，寬約42公尺共約300平方公尺，公園內設有涼亭一座、石桌，是附近居民聊天的集會場所，另外還有步道208公尺及健康步道24公尺，民眾可到此運動、散步，促進身體健康，公園內廣植花木綠美化，包括千頭木麻黃、水黃皮、樟木、鳳凰木、小葉欖仁樹、杜鵑花等，美麗景觀，提供當地民眾及遊客休閒遊憩空間，更是適合親子休閒活動的好地方。二五連水門公園廣植花木綠美化二五連水門公園涼亭,0,1,0,0,0,0,121.81924,24.82912,宜蘭縣,886,宜蘭,Yilan,,,,礁溪鄉
礁溪蘭花咖啡館,距離金車蘭花園約300公尺，步行不到5分鐘即可抵達「礁溪蘭花咖啡館」，為金車集團的相關事業－伯朗咖啡，跟一般的門市不一樣的地方是，礁溪蘭花咖啡館為一庭園，有綠地、花木以及涼亭，伴隨著新鮮空氣走在小步道上，令人感到放鬆，是一大享受！而建築物外觀乍看還以為是有錢人的「豪宅」或是「別墅」呢！庭園內景致非常迷人，過去是金車公司的招待所，如今已成為讓遊客、民眾能在這優美的環境中享受悠閒時光的好地方！以蘭花為主題的咖啡館，不論是館內或是館外都能欣賞到美麗的蘭花，不少遊客專門到此取景攝影，非常適合拍照留念喔！邊喝咖啡還能欣賞落地窗外的迷人景觀。溫暖的陽光照進礁溪蘭花咖啡館，令人感到舒服愉悅！礁溪蘭花咖啡館，建築物外觀乍看還以為「別墅」，景致非常迷人！礁溪蘭花咖啡館附有小型停車場，約可停放20輛小客車。,0,0,0,0,1,0,121.78675,24.82227,宜蘭縣,887,宜蘭,Yilan,,,,礁溪鄉
礁溪站前廣場,礁溪火車站為旅人抵達礁溪的第一個起點，從礁溪火車站出來，可以看到指標性的地標，站前溫泉廣場，每年冬天來到礁溪，最大的享受就是泡溫泉了，站前溫泉廣場讓你可以一到礁溪就泡泡腳，暖暖心，開啟你美好的旅程！,0,0,0,0,1,0,121.77535,24.82703,宜蘭縣,888,宜蘭,Yilan,,,,礁溪鄉
櫻花陵園,櫻花陵園為2013年礁溪溫泉盃櫻花陵園馬拉松賽的終點站，過去更曾為宜蘭露營季的露營區，獨特的視野景觀，有種植了許多櫻花樹，是宜蘭賞景的好地方。櫻花陵園的納骨塔由黃聲遠建築師所設計，造型獨特的建築設計國內少見，吸引不少愛好建築的旅客來此賞景。,1,1,0,0,0,0,121.70605,24.806,宜蘭縣,889,宜蘭,Yilan,,,,礁溪鄉
礁溪溫泉廣場,礁溪溫泉廣場位於礁溪路五段與溫泉路的交接口，廣場上設有溫泉公仔，常讓經過旅客停下腳步，再次拍照打卡，稍作休息；廣場另一側有湯圍溪步道，沿著溪流欣賞周遭綠意盎然的自然步道，享受悠閒又寧靜的時光。礁溪溫泉地標：大大的四個字「礁溪溫泉」，非常有氣勢！礁溪溫泉廣場上，最顯眼的就是這個「大石頭」，穩穩地立於草皮上，非常有氣勢！是礁溪溫泉的地標之一，來到這的觀光客都會在此拍照留念、也是攝影者們喜愛的景點。湯圍溪步道：適合放慢腳步，沿著湯圍溪步道散步。沿著湯圍溪流，礁溪溫泉廣場旁設有一小段湯圍溪步道，時常可以看到當地長者、小朋友、情侶在悠閒的午後、傍晚或晚飯後沿著溪散步在步道上，步道上設有許多椅子，走累了也可以坐下來與同行者看個風景、聊天休息。礁溪立體停車場：外觀特殊的幾何風格非常顯眼！礁溪溫泉區假日人潮多，常常有車位難求的情況，礁溪鄉公所特別開放此立體停車場，包含身心障礙車位總共有253個停車位，費用為，日間(08:00-23:00)小型車30元/小時，夜間(23:00-08:00)小型車20元/小時，當日最高：小型車300元/天。歡迎各位遊客將愛車停放在這邊並安心去享受美好的溫泉之旅！,0,0,0,0,1,0,121.77366,24.8288,宜蘭縣,890,宜蘭,Yilan,,,,礁溪鄉
礁溪溫泉地景廣場,溫泉地景廣場位於礁溪路五段與中山路二段的交叉口，也就是礁溪溫泉核心的入口處，一進入礁溪溫泉區就可以看見溫泉地景廣場以及其地標，是觀光客拍照留念與攝影愛好者取景不能錯過的地標之一，地景廣場總面積約3600平方公尺，使用四菱砂岩石材建造地標塔、景觀水路及小瀑布，形塑依山傍水的地景風貌，中央設置了4個涼亭泡腳迴廊，各個涼亭泡腳池大約可容納60人；其中一個入口處旁的涼亭可看到對面的迎賓廣場以及湯圍溪，一進入廣場就可以感受到令人放鬆的氣氛，儘管只是泡腳，就足以消除平時身心所累積的疲勞與壓力；廣場內廣舖植草磗，綠美化景觀與涼亭，營造出礁溪香煙繚繞、獨樹一格的泡腳文化，提供遊客更優質的休憩體驗空間，泡完腳可在涼亭休息吹吹風，與家人好友共度悠閒時光。迎賓廣場：地景廣場的右側是礁溪的迎賓廣場，象徵性的標的表示礁溪人歡迎旅客來遊玩的熱情!涼亭泡腳迴廊：地景廣場中央設置了4個涼亭泡腳迴廊，各個涼亭泡腳池大約可容納60人!地景廣場溫泉特色：地景廣場的溫泉溫度約35~40度，舒適的溫度歡迎你來享受喔~地景廣場休憩區：泡完腳可在涼亭休息吹吹風，與家人好友共度悠閒時光。,0,1,0,0,1,0,121.77565,24.82853,宜蘭縣,891,宜蘭,Yilan,,,,礁溪鄉
礁溪德陽宮,德陽宮的主祀神佛為中壇元帥，民間俗稱「太子爺」、「羅車太子」、「哪吒太子」等。廟方沿革所記廟史可追溯於清嘉慶十二年(西元1807年)，創廟迄今已有兩百多年的歷史。在宮廟的中壇供奉李哪吒為中壇元帥，成為把守宮廟的主帥護法神。李哪吒塑成童子像，左手拿金捲，右手執金鎗，腳踏風火輪，表示威風凜凜法力無邊，傳說，哪吒腳踏風火輪，行動非常便捷，故許多職業駕駛人，如貨車司機、計程車司機、遊覽車司機等，往往奉其為守護神，並放置一尊小型的哪吒像于車上，祈求行車平安順利。重陽是三太子哪吒的聖誕，當地民眾習慣在重陽之前到德陽宮向太子爺拜拜，非常熱鬧！廟方不定期會舉辦廟會活動，想要祈求行車平安的遊客，不妨帶著誠心來向三太子爺參香祝壽！,0,0,1,0,0,0,121.77322,24.82656,宜蘭縣,892,宜蘭,Yilan,,,,礁溪鄉
礁溪協天廟,協天廟是北台灣首屈一指，也是最重要的關帝廟，每年有大批的善男信女前來祭拜，香火十分鼎盛，較其他廟宇更為特殊的是，協天廟是由清廷政府親自頒敕建造的。每年春祭大典所舉行之「乞龜」拜拜活動及秋祭大典的「四佾舞」都是吸引大批人潮的焦點活動。主祀 關聖帝 君，當初建廟的位址，是黃峰巢的靈穴，在嘉慶九年 (1804 年) 建廟，也就是現今協天廟的前身。,0,0,1,0,0,0,121.76909,24.81854,宜蘭縣,893,宜蘭,Yilan,,,,礁溪鄉
猴洞坑瀑布,猴洞圳頭，位於白雲村境內，古稱「猴洞坑」，又稱「圳頭」，今人則以「白石腳」稱呼。鄉賢傳說早期石洞內有甚多獼猴居處其中，因以為名。猴洞坑發源於四堵山東麓，全長五公里，為礁溪鄉重要河流之一。猴洞坑為頭城、礁溪兩鄉鎮之界河，上游一公里左右為礁溪鄉所有，中、下游以下則屬頭城鎮。1917年，為了農田水利灌溉以及防止山洪爆發，因而修築堤防、圳道，於瀑布源頭題字，用來記述此事，溪旁立有「猴洞圳頭」四字。猴洞坑瀑布之溪水短流急促，高低落差大。除了觀賞瀑步，也能在步道上散步，促進身體健康，吸收芬多精！猴洞坑瀑布清澈無比的水流。  在猴洞坑瀑布這兒，可眺望蘭陽地區景色。,1,0,0,0,0,0,121.78266,24.84153,宜蘭縣,894,宜蘭,Yilan,,,,礁溪鄉
佛光大學校園,位於林美山的佛光大學，是佛光山星雲大師為了實現以教育培養人才的理想，並以「將智慧留給自己，把大學留在人間」的理念，號召發起全世界「百萬人興學委員會」，凝聚海內外百萬人的心力，連結百萬人善緣，聚沙成塔，集腋成裘，所創立的一所綜合大學，面積大約為五十六萬公頃，可以直接鳥瞰蘭陽平原與龜山島，東側聯外道路可通往慈心橋及德祐大道，校區地勢屬西高東低，高低差約有三百一十五公尺。校園內的建築形式以院落方式配置突顯中國式建築之特色，校內更設置觀景平台，座落於山頂的佛光大學除了適合看日出，夜晚時還可以欣賞美麗夜景，眺望蘭陽平原的萬家燈火，一覽無遺；校園內的建築有濃濃古代書院的味道，符合佛光大學佛家的洗塵精神，適合來此享受心靈之旅。校園從每天上午七時到晚間九時開放參觀，一般民眾只要在大門口換證。佛光大學是非常適合親子共遊、年長者踏青和青年男女談情說愛的礁溪鄉著名景點。佛光山校園景致迷人！佛光山校園內莊嚴的建築。夜晚時，搭配佛光山校園內的美麗建築，欣賞夜景！座落於山頂的佛光大學也適合看日出喔！,0,0,0,1,0,0,121.7221,24.81623,宜蘭縣,895,宜蘭,Yilan,,,,礁溪鄉
淡江大學蘭陽校園,位於林美山上的淡江大學蘭陽校區，校園面積大約為40公頃，遠眺太平洋，俯瞰龜山島，聞名的「龜山日出」風景媲美淡水校園的「淡江夕照」，二者皆為台灣八景之一。蘭陽校園種下了數千棵的台灣原生樹種，除了杜鵑、櫻花、水生植物之外，還有珍貴的台灣原生種「針葉五木」、「闊葉五木」與冰河孑遺「四大奇木」。負責規劃蘭陽校園台灣原生種植物生態林園的土木系教師王明仁表示：「有些是保育類的台灣原生種，蘭陽校園可以說是栽植了許多『國寶級』植物。」原生種植物生態林園，是在結合了淡江師生、蘭陽駐校藝術家、林務局保育造林相關單位，與蘭陽地區原生種植物保育專家們的珍貴建議，共同參與造園規劃所達成的，並在林務局羅東林區管理處提供樹苗與專業諮詢之下，踏出一大步。蘭陽校園的綠化植栽，希望建立一個自然生態林園，吸引珍奇異鳥、松鼠、蝴蝶、螢火蟲等前來覓食棲息，並營造一個良好的讀書研究環境，成為國際知名的生態景觀校園。淡江大學可遠眺宜蘭礁溪鄉江大學可俯瞰龜山島,0,1,0,0,0,0,121.72894,24.82195,宜蘭縣,896,宜蘭,Yilan,,,,礁溪鄉
林美石磐步道,位於礁溪鄉林美村的林美石磐步道是一個環狀的步道，名稱是由「林美」、「石磐」所組成的。「林美」是指當地村名(礁溪鄉林美村)，當地早期的地名為「林尾」，後來才改為「林美」。「石磐」則是指「石磐瀑布」，步道全程1.7公里，有凹谷、溪流、瀑布、石磐、原始林相與筆筒樹林，沿途景色多樣且生態豐富，此步道生態豐富，路線平緩，可戲水賞瀑，沿途山宗、筆筒樹滿佈山野，壯觀的大瀑布與小水潭分布其間，自然景觀野趣十足。步道途中設有觀景平台，讓遊客可以在觀景平台休息時，也能鳥瞰整個蘭陽平原，大飽眼福。不論是老年人、年輕人或小朋友，都適合行走在林蔭步道下，吸收清新自然的林間植物芬多精，有種說不出的舒適感，伴隨著大自然的流水聲，讓人放鬆舒暢，心曠神怡。適合漫步在路線平緩的林美山石磐步道～林美山石磐步道生態豐富，也能邊戲水邊賞瀑！林美山石磐步道休憩區壯觀的大瀑布與小水潭分布其間,1,0,0,0,0,0,121.73365,24.82706,宜蘭縣,897,宜蘭,Yilan,,,,礁溪鄉
礁溪高爾夫球場,位於林美山－鵝仔頭山旁的高爾夫球場，占地約50公頃，是十八洞國際標準高爾夫球場，是蘭陽地區唯一的高爾夫球場。整座球場依照地勢所建，保留了最原始的面貌，在山上可以欣賞五峰旗倒垂白鍊瀑布、觀賞龜山朝日奇景及礁溪市區，景緻迷人。高爾夫球場俱樂部後方設有水池，可見水鴨、鯉魚悠遊其中，山谷間時常可以看見多種鳥類飛翔。在大樓內設有中餐廳、多功能宴會廳、球具專門店，供遊客休憩用餐，也是接待貴賓、喜慶宴客、公司聚餐的最佳選擇，打完十八洞剛好可以到礁溪市區享受舒服又悠閒的溫泉。 礁溪高爾夫球場：高爾夫球場後方設有水池，可見鯉魚悠遊其中。 礁溪高爾夫球場：礁溪高爾夫球場是蘭陽地區唯一的高爾夫球場。礁溪高爾夫球場：礁溪高爾夫球場占地約50公頃，是十八洞國際標準高爾夫球場！,0,0,0,0,1,0,121.74053,24.82608,宜蘭縣,898,宜蘭,Yilan,,,,礁溪鄉
林美金棗文化館,礁溪鄉的林美村，是金棗之村，每個農民都深具金棗文化的底蘊。「金棗」，或稱「金桔」、「金柑」是個有著金黃色外表與酸甜內在的水果，因其散發有如黃金般的色澤，故被視為吉利的象徵。本館以金棗為主題，透過農委會及地方農會輔導帶領所成立，遊客或學校可以預約參觀活動，透過老闆或館內員工的解說，可以吸收到不少有關金棗的知識；一樓為販賣部，開放現場旅客試吃及品嚐，當然也能在此選購伴手禮，館內二樓則為展示區，透過圖片解說及文字介紹，讓旅客以及小朋友了解金棗的加工製造過程以及每個季節不同的照顧方式。來到這，可別忘了帶包印有林美字樣的「金棗喉糖」，老少咸宜，是內行人指定的礁溪名產之一，不僅能達到潤喉的效果，滋味也令人難忘。,0,1,0,1,0,0,121.74948,24.81476,宜蘭縣,899,宜蘭,Yilan,,,,礁溪鄉
玉清宮,礁溪九龍山白鵝湖玉清宮，宮貌巍峨宏偉，主祀玉皇上帝，肇建於民國六十五年，一樓為朝儀會館，二樓為禪房，三樓為道祖殿，四樓為玉皇殿，香火鼎盛，神威顯赫，信眾遍佈全國各地。九龍山，九脈山崙枕臥，狀似九龍環繞，氣勢雄偉；本宮背山面水，宮的下面即白鵝湖，白鵝湖清澈如鏡，五彩祥雲即在眼前；本宮左右各有四脈山崙，氣勢非凡，猶如君臨天下，視野遼擴，近瞰蘭陽平原，良田千畝，遠眺東海岸，碧波萬頃，風景秀麗，美不勝收。玉清宮備有早午餐可讓香客點選，也有房間可供香客休憩，請多利用電子郵件向玉清宮預約房間及點餐。,0,0,1,0,0,0,121.74978,24.80484,宜蘭縣,900,宜蘭,Yilan,,,,礁溪鄉
幾米廣場,當繪本走進了現實世界，你曾有想過他會是長什麼樣子嗎？在宜蘭火車附近的幾米廣場，終於圓了幾米粉絲的夢想。 幾米廣場原本是鐵路舊宿舍區，後來設置成國道客運的轉運中心，而宜蘭正是知名繪本家幾米的故鄉，因此以「記憶片刻風景」為主題，打造成全台灣第一座幾米主題廣場，同時也保留原有的歷史建築與老樹。 在這裡，你可以看見《向左走，向右走》的男女主角匆匆地往各自的方向離去，或是跟著《星空》裡的小男孩、小女孩，一起等著那一輛永遠不會來的公車，以及《地下鐵》中承載著旅人記憶的行李箱&hellip;&hellip;出現在幾米公園裡的每一個裝置藝術，都讓人有無限的想像空間與感動。 而走路走5分鐘就到的幸福轉運站，不再是給人來去匆匆的印象，讓前來旅遊的遊客能夠放慢腳步，願意多花點時間駐足，欣賞周邊的美景，深刻記憶宜蘭這令人充滿微笑的地方。,0,0,0,0,0,0,121.75709,24.75283,宜蘭縣,901,宜蘭,Yilan,,,,宜蘭市
東門夜市,東門夜市的前身是三角公園，隨著東港陸橋的擴建，成為現在的夜市。東門夜市坐落於宜蘭市東港陸橋下方，從宜蘭火車站出站右轉宜興路一段，步行約300公尺即可抵達。沿著聖後街、和睦路走，可以感受宜蘭東門夜市的熱鬧非凡，是宜蘭市區的不夜城，也是在地人必逛的地方。在東門夜市，能夠一次滿足人們的所有需求，吃、喝、玩、樂樣樣都有，其中以聖後街集中了所有小吃、美食，而服飾百貨區為主的則是和睦路。東門夜市的小吃便宜又非常多元化，各式燒烤、熱食、麵線、米粉到蔥油餅、滷味、飲料、甜湯、冰品等，除了視覺上的享受，更是滿足所有人的味蕾。吃飽喝足後，不妨到和睦路附近逛個街，享受購物的快感，隔天再繼續到東門夜市附近的景點探險，像是宜蘭設治紀念館、宜蘭酒廠、宜蘭文學館等，體驗宜蘭的風俗民情。,0,0,0,1,0,0,121.75794,24.75818,宜蘭縣,902,宜蘭,Yilan,,,,宜蘭市
頭城老街,紅牆黑瓦的頭城老街是頭城最古老的街道，以前稱為頭圍街，因為鄰近當時蘭陽地區唯一商用烏石港，在清朝成為最繁榮的經濟中心，而牆上斑駁的痕跡，見證了整個老街興盛與衰落。一出頭城火車站，走沒幾步就發現了頭城老街，走在頭城老街中，不用四處人擠人，能夠悠閒漫步的逛老街，時不時就可以發現街道兩旁的建築，融合清朝閩南、日據時期的洋樓風格，慶元宮、十三行遺址、盧家宅院、新長興樹記&hellip;&hellip;這些建築物曾經風光一時，而現在成為見證歷史的古蹟。呈現南北走向的街道，兩端各有福德祠，包圍著擁有各時期風格的老街，並成為台灣連續劇中的拍攝場景。除了在頭城老街中感受濃厚的人文歷史氣息，這裡也有藏在巷弄中的美食，等著大家來老街探索並細細品嘗，那充滿懷舊滋味的小吃。,0,0,0,0,0,1,121.82416,24.85696,宜蘭縣,903,宜蘭,Yilan,,,,頭城鎮
羅東夜市,一踏進羅東夜市立刻感受到熱鬧萬分的人潮，它的範圍擴及民生路、民權路、公園路、興東路，羅東夜市除了小吃以外，還有平價服飾店、鞋店等，更是羅東市區逛街吃東西的好地方。由於小吃大部分集中在公園路上，有著公園小吃的俗稱，放眼望去，到處有人排隊等著餐點，想要好好享受羅東夜市的美食、不受人潮所苦的話，建議平日造訪，能夠悠閒地逛著夜市。如果只能假日來訪，建議下午4點以後或晚上10點過後，以避開假日人潮。為了分散車流，羅東夜市在入口旁設置兩座立體停車場，其他停車場零星分布在羅東夜市附近，而市區中部分道路是單行道，在開車前往時要多加留意路牌的導引，避免逆向行駛。而羅東夜市不僅有得逛還有得吃，像是當歸羊肉湯、三星蔥包、糕渣、卜肉、龍鳳腿、脆皮雞蛋糕等等，小吃項目多到讓人無法選擇，也因為這些種種的美食，不僅帶動附近的人潮，更是讓羅東夜市成為著名的觀光景點。,0,0,0,1,0,0,121.76964,24.67685,宜蘭縣,904,宜蘭,Yilan,,,,羅東鎮
羅東運動公園,羅東運動公園坐落於羅東市區，距離羅東火車站約2公里，交通非常方便，並以水、綠、健康為園區設計的三大主題，把自然景觀與運動設施結合，整體設計融合了台灣本土特色和蘭陽的風情，創造出舒適的休閒活動空間。 其中公園內的水景頗為壯觀，以蘭陽溪作為背景，打造出長達1公里的蘭陽溪水系的縮影。另外公園還有一大美景，就是落羽松林，這是來到羅東不可錯過的景點之一。 每逢秋冬的時候，落羽松從翠綠逐漸轉紅，一片片的落葉散落在地面，把羅東公園給染紅了，當遊客們踩著石階走進林間，彷彿進入一座人間秘境，沉浸在這美景之中。 除了欣賞公園的自然景觀，園內設施有泳池、足球場、田徑場、網球場、圓形廣場、水上舞台等，當覺得自己吃太飽想消化的時候，不妨來到羅東運動公園，散步放鬆一下，觀看整點的水舞表演吧！,1,1,0,0,0,0,121.75305,24.68112,宜蘭縣,905,宜蘭,Yilan,,,,羅東鎮
宜蘭河濱公園,在日治時期，宜蘭廳長看到宜蘭河時常氾濫，於是開始修建堤防整治河道，因當時的宜蘭河的水量豐沛，在站在堤防上看景，發現水面映照山巒的倒影，就像畫屏，而被選為蘭陽十八勝之一。 而現在的宜蘭河在規劃後，開始修建田徑場、籃球場、棒球場等設施，也綠化了附近的河岸與景觀，並成為河濱公園，是有節日慶典活動、平時或假日放鬆休閒騎自行車的好去處。 沿著河堤規劃的宜蘭河線自行車道全長約15公里，由河濱公園作為出發點，一路上可欣賞宜蘭河的風光美景，再經過西鄉廳憲德政碑等景點後抵達終點站員山公園，享受悠閒自在的時光。 擁有無邊無際的青青草原的河濱公園，不僅是當地人很熱門的運動場所，也是遊客所喜愛的地方，能夠一掃心中所有的煩惱與疲倦。,1,0,0,0,0,0,121.7558,24.76486,宜蘭縣,906,宜蘭,Yilan,,,,宜蘭市
宜蘭伯朗大道,伯朗大道不只台東有，宜蘭縣冬山鄉的三奇村裡也藏有一條美麗的伯朗大道，那是屬於宜蘭的秘境。與筆直的台東池上伯朗大道不同，宜蘭的伯朗大道屬於彎曲小路，更能帶出視覺上的美感，美景更勝台東的伯朗大道。每逢6月底至7月初，當綠油油的稻田開始轉變金黃色時，站在一旁的觀景台上，可以欣賞一覽無遺的金色稻浪與蜿蜒小路，沒有電線桿的干擾，再加上藍天白雲和遠方山巒的遼闊視野，美得就像幅畫作。在一片稻田中騎著自行車或散步，微風徐徐，飄來陣陣稻香，令人不禁放慢腳步、沉澱心靈，享受這一刻的寧靜。而宜蘭伯朗大道禁止車輛進入，只准步行與騎自行車，車輛一律停放在奉尊宮旁，搭乘大眾交通工具的遊客，可搭火車至冬山瓜棚車站下車，再租自行車沿著成興路騎到三奉路左轉，即可抵達，並來趟稻浪自行車之旅。,1,0,0,0,0,0,121.81408,24.64546,宜蘭縣,911,宜蘭,Yilan,,,,冬山鄉
冬山河生態綠舟,冬山河生態綠舟位於宜蘭冬山河的中上游，是擁有廣大腹地的公園，面積(含水域)約18公頃，視野遼闊，以森林主題為主，將冬山河融為一體自然型態的森林公園，並創造出豐富的自然生態。在正式開園之前，在這塊土地上陸陸續續調查出很多物種，像鳥類、魚類、蛙類、爬蟲類等，這裡就是野生動植物的家，而為了保護他們的棲息地與生活環境，需減少人為干擾，並禁止騎自行車、放風箏、釣魚等造成破壞或影響的行為。冬山河生態綠舟的東岸保有原生植被，成為侯鳥的棲息地，不過除了賞鳥、搭船探索生態以外，園內設有冬山河鐵路橋、大地遊戲區、賞鳥平台、步道等設施，是具有休閒與自然生態教育意義的森林公園。冬山河生態綠舟也鄰近冬山河親水公園、武荖坑風景區、國立傳統藝術中心、羅東夜市等熱門景點，去玩生態綠舟後，不妨到附近的景點走走，感受宜蘭的好風光。冬山河生態綠舟預約導覽申請表單,0,1,0,0,0,0,121.78853,24.6388,宜蘭縣,912,宜蘭,Yilan,,,,冬山鄉
宜蘭文學館,宜蘭文學館坐落於宜蘭市區，旁邊緊鄰著宜蘭設治紀念館。帶有濃厚日式建築風格的宜蘭文學館，前身是舊農校的校長宿舍，後來經歷整修、恢復原貌後，成為宜蘭音樂館。為了要讓更多人了解蘭陽文學，如今改為宜蘭文學館。 宜蘭文學館還保有原本的日式廳舍，不過因空間比較小，館方利用拉門隔出小包廂，讓前來的訪客有不同的選擇。此外，園區內設有餐飲空間，是一棟歷史久遠的舊主秘公館，委外經營管理，讓訪客可在此稍作休息，靜靜地品茶，享受寧靜而舒適的空間。 也因為這裡的環境清幽，氣氛十分祥和，曾有知名影星金城武來此拍攝電視廣告，吸引大批遊客來此參觀，令宜蘭文學館變成熱門拍照景點。 走進文學館，讓人不禁沉澱心靈，感受環境給人的平靜，並把匆忙的腳步放慢，細細閱讀蘭陽作家的文學作品，沉浸在書本的世界中。,0,0,0,1,0,0,121.74945,24.75508,宜蘭縣,913,宜蘭,Yilan,,,,宜蘭市
宜蘭設治紀念館,坐落於宜蘭市區的宜蘭設治紀念館，由日治時期宜蘭廳長西鄉菊次郎所籌建，原為宜蘭縣歷任行政首長官邸，本館主要呈現宜蘭設官治理的歷史發展。1997年經過專家與匠師的規劃與修護，整建後對外開放參觀。來到宜蘭設治紀念館，就像進入另外一個世界，時間彷彿停留在日治時期，老樹成林隨著風搖曳，這裡保留著日式木造房舍、西洋古典建築，以及恬靜優雅的日式庭園。推開門進入主展覽室，空氣中帶有一股淡淡的檜木香，這是因為當時建造官邸時，採用宜蘭太平山的檜木，這裡是一個值得您放慢腳部，細細探索的歷史空間。宜蘭設治紀念館的旁邊就是宜蘭文學館，在參觀完紀念館後，不妨到文學館感受人文氣息，來一同享受在喧鬧市區中得來不易的寧靜。,0,0,0,1,0,1,121.74965,24.75531,宜蘭縣,914,宜蘭,Yilan,,,,宜蘭市
宜蘭美術館,位處於舊城中心地帶的宜蘭美術館，是展現宜蘭美學與工藝的地方，希望藉由美術館這個窗口，讓外界看見宜蘭美術之美，並能夠與在地藝術和台灣、國際深度對話。宜蘭美術館的前身為台灣銀行的宜蘭分行，是日治時期台灣銀行最早蓋的7家之一，曾經這棟建築毀於戰爭，經歷了重建與改建，具有時代的建築特色與空間，正是宜蘭美術館的珍貴之處。在五岔路口旁的南門角，是以前舊城南門的所在位置，並放置了宜蘭藝術大師楊英風的作品，作為美術館的地標。走進館內，得以體驗到不同時空的重疊，感受歷史在美術館留下的痕跡，看看從前作為台銀的金庫，如今改成文件庫。而一、二樓的展覽室，會規劃不同主題來展示宜蘭的美術，光廊和天台等空間，提供遊客來欣賞宜蘭市區。除此之外，美術館的所在地，串連舊城南路上的文化資產，像是宜蘭設治紀念館、文學館、蘭城新月等，成為新的都市文化廊。,0,0,0,1,0,1,121.7519,24.7548,宜蘭縣,916,宜蘭,Yilan,,,,宜蘭市
宜蘭酒廠(甲子蘭酒文物館),宜蘭酒廠創立於1909年，早期宜蘭又稱甲子蘭、噶瑪蘭、蛤仔蘭，因此該廠1998年開放觀光時的酒文物館便以甲子蘭為名。宜蘭酒廠也是目前全台灣歷史最悠久的酒廠，最主要產品就是紅露酒。紅露酒曾經獲得世界評鑑銀牌獎，是很有營養價值的酒類，而紅露酒的主原料是紅麴，因此在館內處處可見紅麴香腸、紅麴米糕、紅麴酒醋、紅糟醬、紅露黑棗、紅露桂圓米糕冰棒等美食和衍生性產品，展現了宜蘭的在地特色。以舊物料倉庫改建的酒文物館，有著斑駁的牆面與濃厚的歷史氣息，還有獨特的用老酒甕做的甕牆瀑布，來到這裡不僅能聞到酒香、品嘗美食，也可參觀酒文物館、紅麴館、酒銀行、紅露藝廊，如果透過專案導覽申請，還可參觀酒窖等製酒儲酒設備，了解整個酒類生產的過程。在參訪宜蘭酒廠之後，亦可到附近的宜蘭設治紀念館、文學館等景點走走，渡過充實又有人文氣息的一天。,0,0,0,1,0,0,121.74941,24.7563,宜蘭縣,917,宜蘭,Yilan,,,,宜蘭市
羅東文化工場,羅東文化工場位於宜蘭羅東市區中，兼具文化展演、運動休閒、文創產業發展的機能，不僅提供優質的藝文服務，也為羅東帶入多元豐富化元素，而特殊的建築設計，讓許多人慕名而來，成為現在羅東的地標之一。為了不擋住四周的視線，在淨高18公尺的大棚架下，把天空藝廊吊起來，讓文化市集在地面，使中段的空間空了出來。由於過去羅東有繁榮的林業歷史，因此在羅東文化工場中的空間安排、材料質感、主體建築，都隱隱呼應著當時的林業文化。當遊客們走上樓梯時，可以邊走邊欣賞天空藝廊，以及下方的中廊，站在漂浮月台上，可以一覽無遺四周的景色，視野遼闊，讓人格外地放鬆。羅東文化工場不定時安排主題展覽和演出，也有各式手作活動與文創市集，提供遊客前來體驗。,0,0,0,1,0,0,121.76459,24.67187,宜蘭縣,918,宜蘭,Yilan,,,,羅東鎮
二結庄生活文化館,1993年二結王公廟，決議以平移的方式保留原有的舊廟，現址改建新廟，1998年「千人移廟」的活動見證二結人的凝聚力，舊廟遂轉型為「二結庄生活文化館」，以營造「社區的埕」為目標，開啟並見證了大二結的社區營造運動。,0,0,1,0,0,0,121.76892,24.70836,宜蘭縣,919,宜蘭,Yilan,,,,五結鄉
宜蘭河自行車道,宜蘭河自行車道，是從員山公園至中山橋銜接宜蘭河濱公園，一路沿著宜蘭河畔的堤防走，在四月天春灑大地一片綠，飽覽怡人風光，踏尋前人史跡(員山神社)，飽覽&quot;蘭陽十八勝&quot;之一－西堤晚眺。 宜蘭河濱公園經整治與規劃，成為市民熱門的運動休閒場所，整齊乾淨的河堤景觀，儼然成為宜蘭最美的自行車道。 從河濱公園出發穿過宜蘭橋下，騎約5分鐘，就到了社福館，這裏風光明媚，除了社福館是名師設計，本身就很有看頭，到這裏後爬上高樓，登高望遠，風景非常迷人。 特別是宜蘭河的沿岸，除了廣闊的草地外，也增加了噴泉，特別的是河中還是附近玩獨木舟的好地點呢！ 這條路線的景觀多變，而且有滿多特別的景點可以再下來逛逛，也不會太遠適合全家大小親子共乘的好路線。,1,0,0,0,0,0,121.7558,24.76486,宜蘭縣,920,宜蘭,Yilan,,,,宜蘭市
濱海自行車道,北濱自行車道又稱為宜蘭濱海自行車北線，起點由東港榕樹公園往北，經過永鎮海濱公園到竹安河口，總長約14公里，除了適合騎自行車外，也很適合沿著自行車道健行，觀賞沿途秀麗的景色。 在自行車道沿路設有兩處景觀涼亭區，來提供遊客休息與觀賞這一帶的海岸風光。車道兩旁種植白色的文殊蘭、台灣野百合、海檬果等植物，在夏末秋初時，正是是文殊蘭與野百合的花期，在海風吹拂之下，白色的花朵搖曳著，一邊著騎自行車一邊賞花，真是格外的愜意。 而沿途也有不少小路能夠通往海灘，可伴隨著陣陣海浪聲，欣賞海濱植物、遼闊的太平洋，遠眺龜山島等海岸線的特殊美景。 不過自行車補給站離車道有一小段距離，建議出發前請準備好補給的東西，再來一趟濱海單車小旅行。,1,0,0,0,1,0,121.81678,24.77871,宜蘭縣,921,宜蘭,Yilan,,,,壯圍鄉
蘭陽溪自行車道,蘭陽溪自行車道可分為南岸和北岸這兩條車道，北岸自行車路線由蘭陽大橋為出發點，一路往東走可到蘭陽溪口，全長約6.5公里，而南岸由蘭陽大橋為起點，東至清水大閘門，全長約8公里。在蘭陽溪自行車道騎自行車，可串聯多條自行車的路線，並沿途欣賞蘭陽溪特有的溪流地景，或是到蘭陽溪口水鳥保護區賞鳥。而在一路上會經過二結王公廟、蘭陽大橋、清水大閘門、休閒農業區、蘭陽溪出海口等景點，不僅能夠品嘗宜蘭生產優質的威士忌、著名的哈密瓜、黃金番茄等新鮮水果之外，感受宜蘭在地的人文歷史和美麗的田園風光，天氣晴朗時，更能在出海口眺望朦朧的龜山島。這不僅僅是騎自行車健身，沿途還可以參加各式各樣的農村體驗活動，來一趟充實的自行車小旅行。,1,0,0,0,0,0,121.8282,24.7174,宜蘭縣,923,宜蘭,Yilan,,,,壯圍鄉
冬山河自行車道,坐落於冬山火車站旁的冬山河自行車道，交通十分方便，容易租借自行車，是一條平易親人、四季都適合騎自行車的車道。 冬山河自行車道，以冬山火車站作為起點到五結大閘門為終點，沿途經過冬山森林公園、清水橋、珍珠休閒農業區、冬山河親公園、國立傳統藝術中心等等著名景點。 一路上沿著冬山河河畔騎自行車，水面波光粼粼，再配上遠方綿延不絕的山巒，不禁沉浸在這清幽秀麗的景緻之中，讓自己遠離都市喧囂，拋去一切的煩惱。 騎上自行車，沿路好好欣賞這美好的田園風光、水鳥的生態，以及陪著騎車人的河畔景色。天氣晴朗時，看著紅色的利澤簡橋搭配青青草原，讓人彷彿置身於歐洲，這麼遼闊而美麗的視野景觀，使得這趟自行車小旅行充滿了驚奇與滿足。,1,0,0,0,0,0,121.80983,24.66707,宜蘭縣,924,宜蘭,Yilan,,,,冬山鄉
雙連埤野生動物保護區,雙連埤位在宜蘭員山鄉湖西村的山區盆地中，鄰近福山植物園。是由大小兩座湖所組成的天然堰塞湖，當地人稱之為上埤與下埤，不過下埤已變成泥沼地，只留上埤還保有水源。而雙連埤的區內，涵蓋全台三分之一的水生植物品種，可謂是生態豐富的水生植物天堂。 雙連埤時常被濃霧籠罩，放眼望去竟是一大片的蔓草，在湖畔偶有幾排竹林隨風搖曳，耳邊傳來陣陣蟲鳴鳥叫，伴隨幾聲呱呱的蛙鳴，加上湖面倒影，讓雙連埤頗有幾分田園詩意，而這樣的美景，吸引了無數電影來此取景拍攝。 雙連埤還有一大特殊生態景觀，是台灣難得一件的奇景，在大小湖泊之間，有一塊約足球場大小的植物浮島，由多種水生植物而組成，會隨著颱風來時而移動，每一次移動總會為水中的植物洗牌一次，並重分配領域。 也因浮島的特殊，孕育出多種魚蝦、蜻蛉、蛙類等昆蟲動物，更吸引多種的侯鳥、留鳥來此駐足，成為牠們最佳棲息的地方。因此假日不妨來雙連埤走走，規劃一趟大自然知性之旅。,0,1,0,0,0,0,121.64037,24.75022,宜蘭縣,925,宜蘭,Yilan,,,,員山鄉
蜊埤湖,蜊埤湖位於員山福園的旁邊，在湖上建造一座追思橋，因高處眺望湖面形狀像張開嘴的蛤蜊，所以命名為蜊埤湖。 蜊埤湖的湖畔種植了落羽松和銀杏，每逢秋冬的季節時，落羽松逐漸轉紅，展現橙黃、紅色那樣繽紛的色彩，倒映在廣大的湖面上顯得格外浪漫，湖上悠游的綠頭鴨多了幾分愜意之感，令人彷彿置身於國外的美景裡。 蜊埤湖的湖面上冷熱交替，產生朦朧的霧氣，增添幾分夢幻之美，隨著日出日落的光影變化，陽光灑落在湖面上，使得蜊埤湖展現色彩層次，再加上園區中一大片的青青草原，遠方翠綠的層疊山巒，讓人感受不出自己身處在墓園之中，反而像是在童話世界裡。 而這番美景，更是吸引許多攝影愛好者來此取景，拍攝夢幻而美麗的照片，同時也帶動不少遊客前來拜訪。,1,0,0,0,0,0,121.69719,24.75531,宜蘭縣,926,宜蘭,Yilan,,,,員山鄉
清水大閘門,冬山河緩緩地流向大海，其中名為下清水的地方，是冬山河下游入海口處最低窪的區域。而清水大閘門，又叫五結防潮閘門，是宜蘭五結鄉頗有名氣的閘門景點。 清水大閘門有20孔閘，每孔2.5公尺，對於調節水量發揮了極大的功能，自此，冬山河下游就比較少發生水患或海水倒灌的現象。 大閘門的視野良好，風景優美，不論是看夕陽或是賞月，波光粼粼的水面總是映照旅人的倒影，再加上這裡是台灣知名電影的拍攝場景，因此吸引非常多遊客前來拜訪。 大閘門除了有調節水量的功能之外，這裡也是釣客們最愛的地點，由於閘門內外是淡水與海水的交會處，所以擁有豐富的魚蝦生態資源，也吸引許多水鳥來此覓食，因此由大閘門順著河口走，就可以來到蘭陽溪口水鳥保護區賞鳥。,0,0,0,0,1,0,121.83178,24.6923,宜蘭縣,930,宜蘭,Yilan,,,,五結鄉
外澳海灘,外澳海灘又被稱為港澳海灘或港澳沙灘，位於當年船隻雲集的烏石港之外，因此稱為外澳。外澳海灘在烏石港的北面，擁有廣大平坦而乾淨的沙灘，一波波潔白的浪花打上岸來，隱約可見遠方的龜山島，是親子戲水與衝浪客喜歡的海域。除了踏浪玩沙以外，這裡還有著刺激、需要技巧與膽識的極限運動，像是飛行傘、衝浪等。在沿著濱海堤防步道散步，聽著陣陣浪濤聲，遠眺著龜山島，欣賞衝浪好手們的英姿，或抬頭看看在空中恣意飛舞的飛行傘，享受忙碌生活中得來不易的一絲悠閒。散步散到累了，可走進造型奇特、有著鮮黃色外觀的外澳服務區，坐在魚池中讓親水魚咬腳去角質，體驗不一樣的腳部SPA，或是點上一杯咖啡，配上湛藍的海景與沙灘，那真是人生一大享受。,0,0,0,0,1,0,121.84167,24.87435,宜蘭縣,931,宜蘭,Yilan,,,,頭城鎮
梅花湖,梅花湖風景特定區位於冬山鄉中部，羅東火車站至園區車程約17分鐘，鄰近有中山茶園、中山瀑布、仁山植物園、台灣道教總廟三清宮等著名景點。梅花湖是天然蓄水池，三面環山，又名大埤、鏡湖，湖的形狀像一朵五瓣梅花，因而得名為梅花湖。梅花湖不僅擁有豐富的湖泊生態，也具備灌溉農田、水資源涵養效用，是一座天然水庫。而梅花湖占地廣，景區內設有環湖道路，全長約2.2公里，適合遊客騎自行車感受湖光水色。因梅花湖有多樣化的自然生態環境，許多動植物在此生長、逗留，如台灣獼猴、夜鷺、松鼠等，而周邊林立美食小吃店、自行車出租店，讓梅花湖成為親子出遊的熱門景點。,1,1,0,0,0,0,121.7327,24.64303,宜蘭縣,933,宜蘭,Yilan,,,,冬山鄉
望龍埤,望龍埤又名軟埤，坐落於宜蘭員山鄉枕山村湖山國小的後處。在數百年前因山洪爆發的關係，在大礁溪山麓而自然形成的一座湖泊，因望龍埤屬於山中湖泊，湖水與當地居民生活有相關，因此地方耆老從古諺中取名望龍埤，希望雨水豐足。望龍埤風景優美，三面環山，有著中國式的紅色九曲橋與跨湖紅色拱橋，串聯望龍埤兩端的美景，是員山鄉的休閒好去處。因這美好的湖光山色，成為知名偶像劇《下一站，幸福》的拍攝地點，湖畔咖啡廳也因而改名為劇中的村名－花田村，更成為遊客前來遊湖賞景的休息點。在踏著輕快的腳步走上環湖步道，欣賞沿岸水色風光、吸收大自然的芬多精之外，還可以登上飛龍步道至觀景平台，全長約1公里，俯瞰望龍埤，看著隨天氣而有不同光影變化的湖面，會有著不一樣的感受。,1,0,0,0,0,0,121.6988,24.77439,宜蘭縣,936,宜蘭,Yilan,,,,員山鄉
昭應宮,昭應宮是目前宜蘭唯一的國家三級古蹟，在清朝嘉慶年間所建造，而當時昭應宮位於噶瑪蘭廳的中心點，至今已有200多年的歷史。自建廟以來便成為宜蘭民眾的信仰與聚會中心，也是全台唯一面向山的媽祖廟。 昭應宮的主神是供奉媽祖，初建的時候是面向大海，有著保佑討海人的意味。不過相傳地理師占卜，若昭應宮面向西可改變當地的文運，因此在清朝道光年間改建為三殿式的廟宇，並改變方位，後來真的有多位文人中了科舉考試。 昭應宮年代悠久，經歷多次整修，但是廟宇格局、木雕、石雕仍然保持道光年間建造的風格，龍柱、石獅和梁柱細膩的雕工頗具有特色，廟內還可見道光年間留下的匾額，是當地相當崇高地位的廟宇。 廟中除了供奉媽祖之外，還恭奉著清朝開發宜蘭的三大功臣：楊廷理、翟淦、陳蒸，俗稱三大老。喜歡歷史、廟宇文化的人，不妨來昭應宮走一趟，讓心靈沉澱，來一趟深度宜蘭之旅。,0,0,1,0,0,0,121.75283,24.75761,宜蘭縣,938,宜蘭,Yilan,,,,宜蘭市
宜蘭磚窯,宜蘭磚窯又名津梅磚窯，是因為在宜蘭的北津、梅州一帶，這裡的土質黏度高，很適合燒紅磚。在清朝時期就開始設置磚窯，而磚窯大都設在此地，有著磚窯巢的別稱，到了日治時期以後，對於磚的需求量大，更是成為磚窯燒磚的全盛時期。 不過隨著科技進步，製磚技術越來越好，混泥土取代了磚的地位，磚窯開始逐漸沒落、荒廢，宜蘭磚窯成為保存最完整的磚窯古蹟，是宜蘭縣的百年古蹟之一。 宜蘭磚窯由13座紅磚砌成的磚窯所組成，因一列排開形狀像中文目字形，也被當地人叫做目仔窯，而屋簷邊緣設有鳥頭造型的排水孔，具有下雨天排水與燒磚的雙重功能。在磚窯最後還豎立一隻高達37公尺的巨大煙囪，歷經多年的大小天災，卻仍屹立不搖，著實厲害。 來到宜蘭磚窯，不僅能夠看見當時製磚的工具與燒磚的磚窯，一旁設有磚窯歷史的解說牌、民間藝文工作室，讓人來遙想當年磚窯輝煌的歷史。,0,0,0,0,0,1,121.75211,24.76736,宜蘭縣,939,宜蘭,Yilan,,,,宜蘭市
羅東林業文化園區,在日治時期台灣有三大林場，分別是：八仙山林場、阿里山林場以及太平山林場。從太平山林場所砍伐的檜木、扁柏等木材，都會運送到羅東出張所和貯木池進行存放，而羅東出張所經過規劃後，成為現今的羅東林業文化園區。羅東林業文化區坐落於羅東市區附近，交通十分方便，園內規劃有貯木池、森林鐵路、竹林車站、蒸汽火車頭、綠林和步道等，從這些設備、建築物中發現當年的林業發展多麼蓬勃，又是多麼地熱鬧，同時也讓人不禁感慨，許多珍貴的檜木消逝在太平山中。隨著林業發展的轉型，可以看見昔日風華的貯木池，零散放著當時砍伐的檜木，如今，貯木池不再具有貯木的功能，而是成為水鳥和魚兒們的天堂。在園區中散步，彷彿進入一座秘密花園，園內種植滿滿茂密的樹木，不時聽見鳥兒的叫聲，空氣中帶有芬多精與淡淡的檜木香，舒服的環境，令人不禁停下腳步，感受內心的寧靜。,0,1,0,0,0,0,121.77255,24.68407,宜蘭縣,940,宜蘭,Yilan,,,,羅東鎮
二結王公廟,二結王公廟已有200多年的歷史，原名為鎮安廟，曾有舉辦千人移廟級具歷史性的事蹟，來表示在地居民對王公廟的重視。如今新廟建於舊廟旁，舊廟成為二結庄生活文化館，內有陳設祭典用的古物、精緻雕工的梁柱、廟史等，是宜蘭當地很重要的文化資產。 二結王公廟主要供奉的神祉為古公三王，是當年南宋抵抗蒙古入侵的三位義軍首領，在清朝時期隨著人民渡海來到台灣，供奉在現今宜蘭縣二結庄內，並在每年農曆11月15日舉辦隆重的王公壽誕祭典。 其中祭典裡的過火儀式是全台最盛大的過火民俗活動，燒到滾燙的木炭撒上鹽、米，信徒抬著有神明的轎子，赤腳踩在冒煙的木炭上，進行去除晦氣與祈福的儀式。 除了過炭火以外，還有掠童乩、感謝天上眾神的庇佑等儀式，這些儀式帶有地方特色與宗教上潔淨的意義，也以文化節的形式，推廣陣頭、戲曲等傳統民俗，並吸引各地民眾來參與這盛大的宗教祭典。,0,0,1,0,0,0,121.7691,24.7087,宜蘭縣,941,宜蘭,Yilan,,,,五結鄉
奉尊宮,奉尊宮位於冬山鄉三奇村，位處宜蘭伯朗大道一旁，奉尊宮祀奉著玉皇大帝，為在地民眾的信仰中心。,0,0,1,0,0,0,121.81296,24.64487,宜蘭縣,943,宜蘭,Yilan,,,,冬山鄉
莎貝莉娜Sabelina,莎貝莉娜的誕生，是為了滿足現代人追求美好、對生活品味的堅持與豐富精緻生活的每一處。手印工藝對人們有無形的魅力，每個人都喜歡做獨特的自己，完成美好。經過多年研發積累，莎貝莉娜印台系列產品，已經發展到紙、布、木、陶瓷等材質，都可以運用的多樣色彩印台，和細緻精彩的圖案搭配，可廣泛地與其他手工藝技巧結合。莎貝莉娜透過成立手作教室，由教學帶動研發團隊，發掘出更多生活創意種子，尤其是對在地生活的細膩觀察，進而運用台灣元素，開發設計出獨具台灣特色的圖案應用，將來更希望與世界美學元素交流，激發出更多無限可能的變化。,0,0,0,1,0,0,121.73718,24.77711,宜蘭縣,944,宜蘭,Yilan,,,,宜蘭市
菌寶貝博物館,全台首座以微生物為主題的博物館，設立於2011年1月，是由拜寧生物科技集團結合一群台灣及美國的微生物專家共同籌劃設立，命名菌寶貝是取台語發音&rdquo;很寶貝&rdquo;的諧音，蘊涵菌的&quot;寶貝或寶藏&quot;的意義。設立的初衷，是有感於一般大眾對於生活週遭無所不在的微生物仍知半解，甚至排斥與恐懼，我們希望藉由菌寶貝博物館設，以互動式導覽、體驗探索方式教導民眾正確的微生物知識，讓大家對微生物世界能有更進一步的認識，同時了解到，在大自然環境中並不一定都是壞菌，也有各種對人類有益的寶貝菌。,0,1,0,0,0,0,121.73557,24.77634,宜蘭縣,945,宜蘭,Yilan,,,,宜蘭市
金車噶瑪蘭蘭威士忌酒廠,雪 山隧道拉近了宜蘭與台北的距離，使親近宜蘭自然美景成為都市人最佳的假日休閒選擇。座落於宜蘭員山的「金車宜蘭威士忌酒廠」，已於西元2008年12月 4日開幕。造酒團隊採用中央山脈與雪山山脈的清澈水源，在太平洋水氣與雪山山風作用下，孕育出口感醇厚、風味迷人的金車威士忌，並以「KAVALAN」為 品牌，榮耀宜蘭。現在，您不僅可親身體驗KAVALAN WHISKY的製造流程，還可參觀金車生物科技悉心呵護的蘭花園，以及啜飲金車企業最引以為傲的伯朗咖啡。走一趟宜蘭，品味威士忌、蘭花與咖啡香，與最親 愛的家人、好友，共享一趟難忘的威士忌酒莊之旅吧！,0,0,0,1,0,0,121.6918,24.71384,宜蘭縣,946,宜蘭,Yilan,,,,員山鄉
養蜂人家蜂采館,來到蜂采館，我們爲您鋪陳一個充滿知識性、文化性、趣味性的蜜蜂生態之旅，讓您親密的貼近、體驗悠遊於豐采蜜蜂的神奇世界。館內提供戶外生態解說服務，讓您體驗現採蜂蜜和花粉的樂趣哦!!,0,1,0,1,0,0,121.6846,24.70853,宜蘭縣,947,宜蘭,Yilan,,,,員山鄉
香草菲菲芳香植物博物館,"「香草菲菲」座落於宜蘭縣員山鄉橫山頭休閒農業區，緊鄰太陽湖畔，基地面積3,025坪，室內空間達1,600坪，係財團法人太陽湖文教基金會，為發揮宜蘭文化特色，推動文化教育理念，從事文化創意產業，於民國97年籌設，101年1月興建完成，3月1日正式開館營運，園區並結合香菲生活事業有限公司共同經營，提供展示、體驗、餐飲、商品及公共服務等內容，是一個融合知性、文化、教育與休閒的多元體驗空間。「香草菲菲」為國內首座以「香味」為主題的芳香植物體驗館，介紹各種與香味有關的自然與人文知識。倘佯於香草菲菲的自然空間裡，每一種芳香植物、灌木、喬木，可聞、可看、可親近，更可以在桂花樹下品嚐獨具創意的主題特色餐，也能在緊臨太陽湖的湖光山色、緩坡丘陵中，享有遠眺蘭陽平原與龜山島之自然美景。這座被當地人戲稱為宜蘭白宮的建築，由鋼構、玻璃、木質三種元素建構而成的純白建築，透過大片的玻璃，讓戶外自然景色也成為香草菲菲的擺設之一，寬闊的室內空間，環繞著綠帶，讓空氣不只清新，更不時飄著季節花香，也許是桂花，也許是野薑花，香草菲菲讓每個季節的香味擁有展現的舞台。",0,1,0,0,0,0,121.6827,24.71464,宜蘭縣,948,宜蘭,Yilan,,,,員山鄉
幸福轉運站,幸福轉運站位於宜蘭火車站附近，走路約5分鐘的路程，鄰近的地點有幾米公園、鋼造樹木的丟丟噹森林。在以前是國光客運的閒置空間，後來改建為幸福轉運站。而整個園區用幾米《忘記親一下》作為主題，內有彩繪廢棄的公車、老舊的外牆，來成為新的裝置藝術。幸福轉運站不僅僅是宜蘭熱門的拍照景點，更是個關心弱勢團體和身心障礙的多功能服務據點。在園區內可看見身心障礙者的創作、小農作物的販售，還有主題展、體驗活動等，讓遊客可以藉此深入了解，關心這群特別的孩子。而園內造景以長頸鹿和站長幸福大象等動物當作主題，結合了遊樂器材，讓裝置藝術除了欣賞以外，還能夠讓大小朋友玩樂，在拍照、遊玩的同時，可以細細了解幸福轉運站背後的故事。,0,1,0,0,0,0,121.75618,24.75173,宜蘭縣,949,宜蘭,Yilan,,,,宜蘭市
清溝夜市,清溝夜市位於冬山鄉的清溝路上，整個夜市範圍在永興路到永清路之間，全長約有1公里。清溝夜市在馬路兩旁林立許多攤販，小吃美食的種類多樣化，還有其他玩樂的攤販，令人會有選擇困難。與羅東夜市較為不同的是，清溝夜市不會人擠人，攤販大部分為流動式，並非固定攤販，因此常有外縣市的攤販來此販賣，也多了一點尋寶的意味。而清溝夜市距離羅東市區不遠，讓來宜蘭羅東玩的旅客又多了一項選擇，不過須注意的是，清溝夜市只在星期三晚上6點開始營業，遇上雨天則不會有攤販來此擺攤。因此在前往清溝夜市時，記得上網查詢，以免撲空而敗壞旅遊的興致。如果來宜蘭去了很多次羅東夜市，想要換換口味時，不妨來到清溝夜市，感受一下流動夜市的魅力所在吧！,0,0,0,1,0,0,121.76096,24.66147,宜蘭縣,951,宜蘭,Yilan,,,,冬山鄉
瘋狂夢想藝術園區,599一票玩到底╲全球第二的暴龍化石就在宜蘭‼16大主題展區隨你玩夠夠！╱「年底了還沒來朝聖網路推爆的⚡#2019年最不可思議場景⚡嗎❓位在宜蘭的『瘋狂夢想博物館』歷經10年打造，共三層樓，讓大小人兒隨著 DNA步道 走進神秘的暴龍世界，還有全球首創的 #暴龍VR虛擬實境 能穿越時空見證暴龍的復活，以及超卡哇伊的暴龍寶寶彩繪DIY，讓小人兒天馬行空地發揮想像，做出屬於自己的暴龍寶寶～整個館內完全可以大大滿足各位小小恐龍迷啊！除此外還有☑暴龍服裝、☑藝術品、☑沉船木傢俱、☑礦石 等各式商品可購買，也有好吃的下午茶，逛完也能來嚐鮮喔！」,0,0,0,1,0,0,121.8245,24.61605,宜蘭縣,952,宜蘭,Yilan,,,,蘇澳鎮
玉清宮,苗栗玉清宮是苗栗地區民眾之精神堡壘，善男信女不計其數，凡人們之疑難問題、婚嫁喜慶，莫不以恩主公為依歸，因此香火鼎盛。玉清宮提供擇日、問卜服務，開放時間：夏天07:00-22:00，冬天07:00-21:00。 苗栗玉清宮建廟迄今已經超過100年了，是苗栗地區香火最鼎盛的寺廟，堪稱是近代台灣著名的廟宇之一。玉清宮的建築，大自整體的廟宇佈局，小至樑柱斗拱之間，都顯示著民間傳統廟宇建築匠師的智慧與技巧，蒞臨玉清宮，除了虔心參拜之外，寺廟的建築值得我們來欣賞。,0,0,1,0,0,0,121.74978,24.80484,宜蘭縣,1320,宜蘭,Yilan,,,,礁溪鄉
